{
  "norad_id": 56337,
  "name": "STARLINK-5561",
  "history": [
    {
      "epoch": "2026-03-28T20:00:01.999872Z",
      "apogee_km": 551.7474750707888,
      "perigee_km": 548.8376732182387,
      "latitude_deg": -27.617602569329627,
      "longitude_deg": -33.326822189518026,
      "height_km": 561.7104071314628,
      "semi_major_axis_km": 6928.429574144513,
      "eccentricity": 0.00020999,
      "inclination_deg": 97.6022,
      "raan_deg": 88.9475,
      "arg_perigee_deg": 106.2722,
      "mean_anomaly_deg": 226.1216,
      "mean_motion_rev_day": 15.05395286
    },
    {
      "epoch": "2026-03-29T04:00:01.999584Z",
      "apogee_km": 550.7142360445032,
      "perigee_km": 548.8035223610195,
      "latitude_deg": -22.42013476893498,
      "longitude_deg": -154.1706376640376,
      "height_km": 558.5931693389392,
      "semi_major_axis_km": 6927.8958792027615,
      "eccentricity": 0.0001379,
      "inclination_deg": 97.6022,
      "raan_deg": 89.275,
      "arg_perigee_deg": 85.7377,
      "mean_anomaly_deg": 251.8908,
      "mean_motion_rev_day": 15.05569243
    },
    {
      "epoch": "2026-03-30T04:00:01.999584Z",
      "apogee_km": 550.3665333098988,
      "perigee_km": 548.5445764679635,
      "latitude_deg": -5.636489582202101,
      "longitude_deg": -156.5597601098126,
      "height_km": 553.4640971977359,
      "semi_major_axis_km": 6927.592554888931,
      "eccentricity": 0.0001315,
      "inclination_deg": 97.603,
      "raan_deg": 90.2602,
      "arg_perigee_deg": 86.9023,
      "mean_anomaly_deg": 267.5842,
      "mean_motion_rev_day": 15.05668126
    },
    {
      "epoch": "2026-03-30T06:00:02.000160Z",
      "apogee_km": 550.443414706996,
      "perigee_km": 548.6598119966029,
      "latitude_deg": 81.413077266052,
      "longitude_deg": 111.15096298923707,
      "height_km": 562.1339201151242,
      "semi_major_axis_km": 6927.688613351799,
      "eccentricity": 0.00012873,
      "inclination_deg": 97.603,
      "raan_deg": 90.3422,
      "arg_perigee_deg": 91.3206,
      "mean_anomaly_deg": 354.5835,
      "mean_motion_rev_day": 15.0563681
    },
    {
      "epoch": "2026-03-30T14:00:03.000384Z",
      "apogee_km": 550.405443272899,
      "perigee_km": 548.4524238849044,
      "latitude_deg": 82.2758729345622,
      "longitude_deg": -49.13963326917591,
      "height_km": 561.9840039588664,
      "semi_major_axis_km": 6927.565933578901,
      "eccentricity": 0.00014096,
      "inclination_deg": 97.6032,
      "raan_deg": 90.6718,
      "arg_perigee_deg": 92.5071,
      "mean_anomaly_deg": 359.0781,
      "mean_motion_rev_day": 15.05676805
    },
    {
      "epoch": "2026-03-30T22:00:00.999936Z",
      "apogee_km": 550.5070095882438,
      "perigee_km": 548.6794743504124,
      "latitude_deg": 79.64458164709173,
      "longitude_deg": 159.29100169858302,
      "height_km": 562.0264353229662,
      "semi_major_axis_km": 6927.730241969328,
      "eccentricity": 0.0001319,
      "inclination_deg": 97.6034,
      "raan_deg": 91.0005,
      "arg_perigee_deg": 84.5143,
      "mean_anomaly_deg": 12.6065,
      "mean_motion_rev_day": 15.05623239
    },
    {
      "epoch": "2026-03-31T20:00:01.999008Z",
      "apogee_km": 550.4708381509463,
      "perigee_km": 548.6779464426199,
      "latitude_deg": 22.503495940088246,
      "longitude_deg": -40.4619083489821,
      "height_km": 552.0568817344853,
      "semi_major_axis_km": 6927.711392296783,
      "eccentricity": 0.0001294,
      "inclination_deg": 97.6036,
      "raan_deg": 91.9044,
      "arg_perigee_deg": 87.1997,
      "mean_anomaly_deg": 295.5106,
      "mean_motion_rev_day": 15.05629384
    },
    {
      "epoch": "2026-04-01T18:13:50.043072Z",
      "apogee_km": 550.50881706988,
      "perigee_km": 548.5108837182252,
      "latitude_deg": 6.644134578562024e-05,
      "longitude_deg": -10.759036293454969,
      "height_km": 552.4887185217689,
      "semi_major_axis_km": 6927.646850394052,
      "eccentricity": 0.0001442,
      "inclination_deg": 97.6046,
      "raan_deg": 92.8175,
      "arg_perigee_deg": 85.1801,
      "mean_anomaly_deg": 274.9591,
      "mean_motion_rev_day": 15.05650425
    },
    {
      "epoch": "2026-04-02T21:20:43.837728Z",
      "apogee_km": 550.4559722521972,
      "perigee_km": 548.5522564739704,
      "latitude_deg": -1.3723212233705056e-05,
      "longitude_deg": -57.48304027007764,
      "height_km": 552.5574957362454,
      "semi_major_axis_km": 6927.641114363083,
      "eccentricity": 0.0001374,
      "inclination_deg": 97.6052,
      "raan_deg": 93.9312,
      "arg_perigee_deg": 89.4256,
      "mean_anomaly_deg": 270.7128,
      "mean_motion_rev_day": 15.05652295
    },
    {
      "epoch": "2026-04-02T22:56:25.700928Z",
      "apogee_km": 550.445389227225,
      "perigee_km": 548.5530361193714,
      "latitude_deg": -1.8961682429276863e-05,
      "longitude_deg": -81.40737228982935,
      "height_km": 552.5489040929887,
      "semi_major_axis_km": 6927.636212673298,
      "eccentricity": 0.00013658,
      "inclination_deg": 97.6053,
      "raan_deg": 93.9968,
      "arg_perigee_deg": 89.1979,
      "mean_anomaly_deg": 270.9404,
      "mean_motion_rev_day": 15.05653893
    },
    {
      "epoch": "2026-04-03T21:16:14.307744Z",
      "apogee_km": 550.4770286809016,
      "perigee_km": 548.5705364335427,
      "latitude_deg": -3.692507587846915e-05,
      "longitude_deg": -56.3595657762793,
      "height_km": 552.5940644256343,
      "semi_major_axis_km": 6927.660782557222,
      "eccentricity": 0.0001376,
      "inclination_deg": 97.6055,
      "raan_deg": 94.9142,
      "arg_perigee_deg": 90.4431,
      "mean_anomaly_deg": 269.6953,
      "mean_motion_rev_day": 15.05645883
    },
    {
      "epoch": "2026-04-04T13:13:14.212416Z",
      "apogee_km": 550.5261027890874,
      "perigee_km": 548.5018431747822,
      "latitude_deg": 3.631756115906448e-05,
      "longitude_deg": 64.39187902879887,
      "height_km": 552.4441178635241,
      "semi_major_axis_km": 6927.6509729819345,
      "eccentricity": 0.0001461,
      "inclination_deg": 97.6055,
      "raan_deg": 95.5703,
      "arg_perigee_deg": 82.4716,
      "mean_anomaly_deg": 277.6677,
      "mean_motion_rev_day": 15.05649081
    },
    {
      "epoch": "2026-04-05T13:08:43.939392Z",
      "apogee_km": 550.5513404202038,
      "perigee_km": 548.4828814557595,
      "latitude_deg": 2.306107322165258e-05,
      "longitude_deg": 65.51715525970839,
      "height_km": 552.5836177115901,
      "semi_major_axis_km": 6927.654110937981,
      "eccentricity": 0.00014929,
      "inclination_deg": 97.6058,
      "raan_deg": 96.552,
      "arg_perigee_deg": 90.211,
      "mean_anomaly_deg": 269.9288,
      "mean_motion_rev_day": 15.05648058
    },
    {
      "epoch": "2026-04-05T21:07:14.064096Z",
      "apogee_km": 550.5725115221167,
      "perigee_km": 548.4692745857856,
      "latitude_deg": -3.1635839979988774e-05,
      "longitude_deg": -54.10758070616445,
      "height_km": 552.6497120254303,
      "semi_major_axis_km": 6927.657893053951,
      "eccentricity": 0.0001518,
      "inclination_deg": 97.6061,
      "raan_deg": 96.8803,
      "arg_perigee_deg": 93.6063,
      "mean_anomaly_deg": 266.5337,
      "mean_motion_rev_day": 15.05646825
    },
    {
      "epoch": "2026-04-06T00:18:38.086848Z",
      "apogee_km": 550.592128987375,
      "perigee_km": 548.448019122955,
      "latitude_deg": -6.526113496951043e-05,
      "longitude_deg": -101.95768019212453,
      "height_km": 552.6537469823959,
      "semi_major_axis_km": 6927.657074055164,
      "eccentricity": 0.00015475,
      "inclination_deg": 97.6059,
      "raan_deg": 97.0113,
      "arg_perigee_deg": 93.7994,
      "mean_anomaly_deg": 266.3409,
      "mean_motion_rev_day": 15.05647092
    },
    {
      "epoch": "2026-04-07T11:24:02.147040Z",
      "apogee_km": 550.6244577682746,
      "perigee_km": 548.4081629212296,
      "latitude_deg": 2.86818030844635e-06,
      "longitude_deg": 91.69266033855772,
      "height_km": 552.6976901057172,
      "semi_major_axis_km": 6927.653310344752,
      "eccentricity": 0.00015996,
      "inclination_deg": 97.6059,
      "raan_deg": 98.453,
      "arg_perigee_deg": 96.1554,
      "mean_anomaly_deg": 263.9855,
      "mean_motion_rev_day": 15.05648319
    },
    {
      "epoch": "2026-04-07T20:58:14.115936Z",
      "apogee_km": 550.6253998588718,
      "perigee_km": 548.4140918255998,
      "latitude_deg": -3.498846445026309e-05,
      "longitude_deg": -51.85723178284392,
      "height_km": 552.7122649670115,
      "semi_major_axis_km": 6927.656745842236,
      "eccentricity": 0.0001596,
      "inclination_deg": 97.6058,
      "raan_deg": 98.846,
      "arg_perigee_deg": 96.7493,
      "mean_anomaly_deg": 263.3915,
      "mean_motion_rev_day": 15.05647199
    }
  ]
}